*******************************************************************************
 Revised: April 12, 2021                 Earth                              399
 
 GEOPHYSICAL PROPERTIES (revised May 9, 2022):
  Vol. Mean Radius (km)    = 6371.01+-0.02   Mass x10^24 (kg)= 5.97219+-0.0006
  Equ. radius, km          = 6378.137        Mass layers:
  Polar axis, km           = 6356.752          Atmos         = 5.1   x 10^18 kg
  Flattening               = 1/298.257223563   oceans        = 1.4   x 10^21 kg
  Density, g/cm^3          = 5.51              crust         = 2.6   x 10^22 kg
  J2 (IERS 2010)           = 0.00108262545     mantle        = 4.043 x 10^24 kg
  g_p, m/s^2  (polar)      = 9.8321863685      outer core    = 1.835 x 10^24 kg
  g_e, m/s^2  (equatorial) = 9.7803267715      inner core    = 9.675 x 10^22 kg
  g_o, m/s^2               = 9.82022         Fluid core rad  = 3480 km
  GM, km^3/s^2             = 398600.435436   Inner core rad  = 1215 km
  GM 1-sigma, km^3/s^2     =      0.0014     Escape velocity = 11.186 km/s
  Rot. Rate (rad/s)        = 0.00007292115   Surface area:
  Mean sidereal day, hr    = 23.9344695944     land          = 1.48 x 10^8 km
  Mean solar day 2000.0, s = 86400.002         sea           = 3.62 x 10^8 km
  Mean solar day 1820.0, s = 86400.0         Love no., k2    = 0.299
  Moment of inertia        = 0.3308          Atm. pressure   = 1.0 bar
  Mean surface temp (Ts), K= 287.6           Volume, km^3    = 1.08321 x 10^12
  Mean effect. temp (Te), K= 255             Magnetic moment = 0.61 gauss Rp^3
  Geometric albedo         = 0.367           Vis. mag. V(1,0)= -3.86
  Solar Constant (W/m^2)   = 1367.6 (mean), 1414 (perihelion), 1322 (aphelion)
 HELIOCENTRIC ORBIT CHARACTERISTICS:
  Obliquity to orbit, deg  = 23.4392911  Sidereal orb period  = 1.0000174 y
  Orbital speed, km/s      = 29.79       Sidereal orb period  = 365.25636 d
  Mean daily motion, deg/d = 0.9856474   Hill's sphere radius = 234.9       
*******************************************************************************


*******************************************************************************
Ephemeris / WWW_USER Sun Dec 28 05:14:25 2025 Pasadena, USA      / Horizons
*******************************************************************************
Target body name: Earth (399)                     {source: DE441}
Center body name: Solar System Barycenter (0)     {source: DE441}
Center-site name: BODY CENTER
*******************************************************************************
Start time      : A.D. 2030-Jun-01 00:00:00.0000 TDB
Stop  time      : A.D. 2031-Sep-30 00:00:00.0000 TDB
Step-size       : 17280 minutes
*******************************************************************************
Center geodetic : 0.0, 0.0, 0.0                   {E-lon(deg),Lat(deg),Alt(km)}
Center cylindric: 0.0, 0.0, 0.0                   {E-lon(deg),Dxy(km),Dz(km)}
Center radii    : (undefined)
Output units    : AU-D
Calendar mode   : Mixed Julian/Gregorian
Output type     : GEOMETRIC cartesian states
Output format   : 3 (position, velocity, LT, range, range-rate)
Reference frame : Ecliptic of J2000.0
*******************************************************************************
            JDTDB,            Calendar Date (TDB),                      X,                      Y,                      Z,                     VX,                     VY,                     VZ,                     LT,                     RG,                     RR,
**************************************************************************************************************************************************************************************************************************************************************************
$$SOE
2462929.500000000, A.D. 2031-Mar-04 00:00:00.0000, -9.481892207988583E-01,  2.948913331150778E-01,  5.722599902557754E-05, -5.373373284047206E-03, -1.649508834063201E-02,  1.717114354331121E-06,  5.735016127486254E-03,  9.929872607744514E-01,  2.323455134014685E-04,
2462941.500000000, A.D. 2031-Mar-16 00:00:00.0000, -9.917176046820704E-01,  9.204709118839462E-02,  6.991516897324041E-05, -1.860880892594477E-03, -1.719591739356155E-02,  7.001735109726941E-07,  5.752301672427999E-03,  9.959801601039645E-01,  2.636942225179483E-04,
2462953.500000000, A.D. 2031-Mar-28 00:00:00.0000, -9.925168469822419E-01, -1.148469451859956E-01,  8.677139939545910E-05,  1.723959785869512E-03, -1.715498703223465E-02,  1.903030337741313E-06,  5.770547860414478E-03,  9.991393896205882E-01,  2.593620992053377E-04,
2462965.500000000, A.D. 2031-Apr-09 00:00:00.0000, -9.509066016426871E-01, -3.166879796841890E-01,  1.026524456607477E-04,  5.175529818359075E-03, -1.637184413527410E-02,  5.892539591144870E-07,  5.788540877793357E-03,  1.002254784005356E+00,  2.627284362407434E-04,
2462977.500000000, A.D. 2031-Apr-21 00:00:00.0000, -8.692279363957947E-01, -5.051677625535272E-01,  1.138004255592025E-04,  8.391098288993860E-03, -1.492920682393289E-02,  1.605358670278659E-06,  5.806483603509035E-03,  1.005361470658571E+00,  2.466547088150043E-04,
2462989.500000000, A.D. 2031-May-03 00:00:00.0000, -7.510970154226829E-01, -6.724172259288484E-01,  1.304153410818108E-04,  1.121761541732956E-02, -1.285233746400012E-02,  6.648401806470014E-07,  5.822374677805190E-03,  1.008112924880378E+00,  2.148724864922490E-04,
2463001.500000000, A.D. 2031-May-15 00:00:00.0000, -6.019850230047933E-01, -8.117166283194297E-01,  1.350515943315540E-04,  1.355306852306054E-02, -1.029004938509176E-02,  8.454081704200563E-07,  5.836617413020331E-03,  1.010578978037480E+00,  1.918306672251902E-04,
2463013.500000000, A.D. 2031-May-27 00:00:00.0000, -4.280625095985144E-01, -9.176301062181393E-01,  1.483211611483326E-04,  1.532681126181969E-02, -7.301397129770986E-03,  7.279042872580974E-07,  5.848072509183817E-03,  1.012562366454955E+00,  1.374222896571143E-04,
2463025.500000000, A.D. 2031-Jun-08 00:00:00.0000, -2.367950710188018E-01, -9.859194334730281E-01,  1.482408545718773E-04,  1.644464209349597E-02, -4.051528300837500E-03, -1.280873843164580E-07,  5.856127978665148E-03,  1.013957127759318E+00,  9.908730153880611E-05,
2463037.500000000, A.D. 2031-Jun-20 00:00:00.0000, -3.593312072296777E-02, -1.014210754524840E+00,  1.540862884760359E-04,  1.691642603726815E-02, -6.426588291413158E-04,  5.882136492207082E-07,  5.861268118216276E-03,  1.014847115333793E+00,  4.328889246372924E-05,
2463049.500000000, A.D. 2031-Jul-02 00:00:00.0000,  1.663168894501827E-01, -1.001271596853136E+00,  1.516016626442745E-04,  1.667539156675436E-02,  2.784395467600430E-03, -8.599863783645771E-07,  5.862097451780585E-03,  1.014990709989150E+00, -1.432226975165474E-05,
2463061.500000000, A.D. 2031-Jul-14 00:00:00.0000,  3.617171671236649E-01, -9.479172555736559E-01,  1.478726396071857E-04,  1.578532453594596E-02,  6.085238118446363E-03,  2.011827821514398E-07,  5.859764888619324E-03,  1.014586839197404E+00, -5.763854947759174E-05,
2463073.500000000, A.D. 2031-Jul-26 00:00:00.0000,  5.424951942141211E-01, -8.561003393608302E-01,  1.438002750905560E-04,  1.423604669668915E-02,  9.163578489833731E-03, -1.119537947118029E-06,  5.853563612446385E-03,  1.013513121512329E+00, -1.203298662305125E-04,
2463085.500000000, A.D. 2031-Aug-07 00:00:00.0000,  7.010879295405226E-01, -7.295798337270024E-01,  1.314839475443116E-04,  1.211301640873421E-02,  1.185488626462856E-02, -3.960991451726761E-07,  5.843874355802865E-03,  1.011835478729900E+00, -1.549623537493315E-04,
2463097.500000000, A.D. 2031-Aug-19 00:00:00.0000,  8.311709071975862E-01, -5.733123980332969E-01,  1.255657195980389E-04,  9.484084692392857E-03,  1.410368200855163E-02, -1.101997081117981E-06,  5.831649849125813E-03,  1.009718871011678E+00, -2.009674374775557E-04,
2463109.500000000, A.D. 2031-Aug-31 00:00:00.0000,  9.270134361498327E-01, -3.934789019587883E-01,  1.079858460390986E-04,  6.436910435162756E-03,  1.576275428217656E-02, -1.122519829794434E-06,  5.816321377798729E-03,  1.007064828474293E+00, -2.335588540815959E-04,
2463121.500000000, A.D. 2031-Sep-12 00:00:00.0000,  9.845948750136638E-01, -1.974492834311521E-01,  9.991736077548524E-05,  3.116834230060581E-03,  1.680260180605190E-02, -8.710093315983813E-07,  5.799763020522577E-03,  1.004197837786025E+00, -2.478025294066589E-04,
2463133.500000000, A.D. 2031-Sep-24 00:00:00.0000,  1.001045102866574E+00,  6.948152846418338E-03,  8.193506421805270E-05, -3.894392416449178E-04,  1.713776703984443E-02, -1.630254376143955E-06,  5.781693626194558E-03,  1.001069219142453E+00, -2.704813506108151E-04,
